STARLINK-5772           
1 56024U 23042AQ  26195.96772425 -.00001464  00000+0 -43712-4 0  9990
2 56024  43.0062  46.2003 0000892 288.5832  71.4923 15.27571367182500
STARLINK-5766           
1 56025U 23042AR  26196.01397549  .00000043  00000+0  11087-4 0  9998
2 56025  43.0043  46.5391 0001244 285.3537  74.7177 15.27575047182508
STARLINK-5770           
1 56026U 23042AS  26195.96000921 -.00000346  00000+0 -30319-5 0  9995
2 56026  43.0070  46.1468 0001569 263.0214  97.0459 15.27574269182499
STARLINK-5777           
1 56027U 23042AT  26195.88949625  .00009593  00000+0  35810-3 0  9990
2 56027  43.0020  46.4807 0001490 248.8110 111.2583 15.27539203182490
STARLINK-5779           
1 56028U 23042AU  26195.97799754  .00000124  00000+0  14025-4 0  9994
2 56028  43.0060  46.2759 0001687 266.2888  93.7771 15.27576991182503
STARLINK-5774           
1 56029U 23042AV  26195.89847470 -.00000392  00000+0 -46850-5 0  9996
2 56029  43.0075  46.5402 0002679 265.1183  94.9363 15.27571741182492
STARLINK-5781           
1 56030U 23042AW  26195.98185192  .00000045  00000+0  11170-4 0  9993
2 56030  43.0058  46.3006 0001684 271.1761  88.8898 15.27576891182505
STARLINK-5785           
1 56031U 23042AX  26195.97029062 -.00000055  00000+0  75164-5 0  9992
2 56031  43.0022  46.2241 0001280 274.9467  85.1239 15.27573726182506
STARLINK-5786           
1 56032U 23042AY  26195.99598606 -.00000006  00000+0  93050-5 0  9990
2 56032  43.0030  46.4070 0001477 258.9860 101.0825 15.27577050182508
STARLINK-5782           
1 56034U 23042BA  26196.00368854 -.00010018  00000+0 -35470-3 0  9990
2 56034  43.0025  46.4617 0001459 265.7829  94.2856 15.27608669182500
STARLINK-5792           
1 56035U 23042BB  26195.98571232 -.00000531  00000+0 -97553-5 0  9994
2 56035  43.0055  46.3312 0001340 277.4646  82.6053 15.27574260182500
STARLINK-5790           
1 56036U 23042BC  26195.99470848 -.00000512  00000+0 -90693-5 0  9994
2 56036  42.9994  46.3854 0001467 255.4370 104.6319 15.27571267182506
STARLINK-5758           
1 56037U 23042BD  26195.54906294 -.00000425  00000+0 -59195-5 0  9990
2 56037  43.0044  34.3162 0001679 272.1175  87.9484 15.27572668182601
STARLINK-5793           
1 56038U 23042BE  26195.94602183 -.00000133  00000+0  46960-5 0  9996
2 56038  43.0034  46.8845 0000892 241.9291 118.1471 15.27575873182497
STARLINK-5795           
1 56039U 23042BF  26195.95936157 -.00000593  00000+0 -12036-4 0  9996
2 56039  43.0027  32.2319 0001495 259.8919 100.1764 15.27577410182664
STARLINK-5798           
1 56040U 23042BG  26195.89783238 -.00000578  00000+0 -11481-4 0  9997
2 56040  43.0029  32.6193 0001238 255.8981 104.1733 15.27578307182657
STARLINK-5800           
1 56041U 23042BH  26196.51780022 -.00000720  00000+0 -16664-4 0  9993
2 56041  43.0050  32.0790 0001203 265.0595  95.0119 15.27572051182718
STARLINK-6109           
1 56094U 23046B   26196.32373617  .00000187  00000+0  16324-4 0  9990
2 56094  43.0013 160.5683 0001024 273.1381  86.9354 15.27578150181554
STARLINK-6090           
1 56095U 23046C   26196.31603335 -.00000331  00000+0 -25218-5 0  9999
2 56095  43.0026 160.5121 0001234 265.7738  94.2973 15.27573111181553
STARLINK-6089           
1 56096U 23046D   26196.26220957 -.00000251  00000+0  38805-6 0  9996
2 56096  43.0016 160.9675 0001177 276.4995  83.5723 15.27576762181549
STARLINK-6077           
1 56097U 23046E   26195.20014688  .00000127  00000+0  14161-4 0  9990
2 56097  43.0026 119.8179 0001468 268.3924  91.6759 15.27574630181921
STARLINK-6088           
1 56098U 23046F   26196.25450061  .00000041  00000+0  11009-4 0  9999
2 56098  43.0024 160.9121 0001198 266.1359  93.9356 15.27576589181532
STARLINK-6076           
1 56100U 23046H   26196.37627646  .00000815  00000+0  39134-4 0  9999
2 56100  43.0010 160.1078 0001183 241.7987 118.2745 15.27573051181561
STARLINK-6095           
1 56101U 23046J   26196.31474646  .00000086  00000+0  12644-4 0  9991
2 56101  43.0025 160.4957 0001206 268.4784  91.5929 15.27576422181555
STARLINK-6075           
1 56102U 23046K   26196.26479411  .00000634  00000+0  32536-4 0  9992
2 56102  43.0010 160.9752 0000469 197.7091 162.3744 15.27575159181540
STARLINK-6096           
1 56103U 23046L   26196.32245419  .00000111  00000+0  13563-4 0  9998
2 56103  43.0019 160.5555 0000848 257.7530 102.3226 15.27576798181553
STARLINK-6062           
1 56104U 23046M   26196.25321284 -.00014434  00000+0 -51525-3 0  9990
2 56104  42.9989 160.8972 0001730 269.4484  90.6170 15.27626161181549
STARLINK-6066           
1 56105U 23046N   26196.22380537  .00011222  00000+0  41639-3 0  9999
2 56105  43.0001 161.5224 0002033 273.0309  87.0310 15.27604909181530
STARLINK-6030           
1 56107U 23046Q   26196.29690899 -.00001166  00000+0 -32862-4 0  9990
2 56107  43.0039 161.2111 0001707 272.5686  87.4970 15.27568453181544
STARLINK-6081           
1 56108U 23046R   26196.33273413 -.00000880  00000+0 -22478-4 0  9999
2 56108  43.0022 160.6177 0000883 266.6234  93.4517 15.27580012181559
