OBJECT_NAME,OBJECT_ID,EPOCH,MEAN_MOTION,ECCENTRICITY,INCLINATION,RA_OF_ASC_NODE,ARG_OF_PERICENTER,MEAN_ANOMALY,EPHEMERIS_TYPE,CLASSIFICATION_TYPE,NORAD_CAT_ID,ELEMENT_SET_NO,REV_AT_EPOCH,BSTAR,MEAN_MOTION_DOT,MEAN_MOTION_DDOT
STARLINK-5772,2023-042AQ,2026-07-14T23:13:31.375200,15.27571367,.00008922,43.0062,46.2003,288.5832,71.4923,0,U,56024,999,18250,-.43712125E-4,-.1464E-4,0
STARLINK-5766,2023-042AR,2026-07-15T00:20:07.482336,15.27575047,.00012448,43.0043,46.5391,285.3537,74.7177,0,U,56025,999,18250,.11086828E-4,.43E-6,0
STARLINK-5770,2023-042AS,2026-07-14T23:02:24.795744,15.27574269,.0001569,43.0070,46.1468,263.0214,97.0459,0,U,56026,999,18249,-.30319E-5,-.346E-5,0
STARLINK-5777,2023-042AT,2026-07-14T21:20:52.476000,15.27539203,.000149,43.0020,46.4807,248.8110,111.2583,0,U,56027,999,18249,.3581E-3,.9593E-4,0
STARLINK-5779,2023-042AU,2026-07-14T23:28:18.987456,15.27576991,.00016877,43.0060,46.2759,266.2888,93.7771,0,U,56028,999,18250,.14024645E-4,.124E-5,0
STARLINK-5774,2023-042AV,2026-07-14T21:33:48.214080,15.27571741,.0002679,43.0075,46.5402,265.1183,94.9363,0,U,56029,999,18249,-.4685E-5,-.392E-5,0
STARLINK-5781,2023-042AW,2026-07-14T23:33:52.005888,15.27576891,.00016848,43.0058,46.3006,271.1761,88.8898,0,U,56030,999,18250,.11170361E-4,.45E-6,0
STARLINK-5785,2023-042AX,2026-07-14T23:17:13.109568,15.27573726,.00012804,43.0022,46.2241,274.9467,85.1239,0,U,56031,999,18250,.7516384E-5,-.55E-6,0
STARLINK-5786,2023-042AY,2026-07-14T23:54:13.195584,15.27577050,.0001477,43.0030,46.4070,258.9860,101.0825,0,U,56032,999,18250,.9304958E-5,-.6E-7,0
STARLINK-5782,2023-042BA,2026-07-15T00:05:18.689856,15.27608669,.00014593,43.0025,46.4617,265.7829,94.2856,0,U,56034,999,18250,-.35470277E-3,-.10018E-3,0
STARLINK-5792,2023-042BB,2026-07-14T23:39:25.544448,15.27574260,.00013409,43.0055,46.3312,277.4646,82.6053,0,U,56035,999,18250,-.9755284E-5,-.531E-5,0
STARLINK-5790,2023-042BC,2026-07-14T23:52:22.812672,15.27571267,.00014673,42.9994,46.3854,255.4370,104.6319,0,U,56036,999,18250,-.9069317E-5,-.512E-5,0
STARLINK-5758,2023-042BD,2026-07-14T13:10:39.038016,15.27572668,.0001679,43.0044,34.3162,272.1175,87.9484,0,U,56037,999,18260,-.59195E-5,-.425E-5,0
STARLINK-5793,2023-042BE,2026-07-14T22:42:16.286112,15.27575873,.0000892,43.0034,46.8845,241.9291,118.1471,0,U,56038,999,18249,.4696E-5,-.133E-5,0
STARLINK-5795,2023-042BF,2026-07-14T23:01:28.839648,15.27577410,.0001495,43.0027,32.2319,259.8919,100.1764,0,U,56039,999,18266,-.12036E-4,-.593E-5,0
STARLINK-5798,2023-042BG,2026-07-14T21:32:52.717632,15.27578307,.0001238,43.0029,32.6193,255.8981,104.1733,0,U,56040,999,18265,-.11481E-4,-.578E-5,0
STARLINK-5800,2023-042BH,2026-07-15T12:25:37.939008,15.27572051,.00012038,43.0050,32.0790,265.0595,95.0119,0,U,56041,999,18271,-.16663771E-4,-.72E-5,0
STARLINK-6109,2023-046B,2026-07-15T07:46:10.805088,15.27578150,.00010243,43.0013,160.5683,273.1381,86.9354,0,U,56094,999,18155,.16324282E-4,.187E-5,0
STARLINK-6090,2023-046C,2026-07-15T07:35:05.281440,15.27573111,.00012348,43.0026,160.5121,265.7738,94.2973,0,U,56095,999,18155,-.2521806E-5,-.331E-5,0
STARLINK-6089,2023-046D,2026-07-15T06:17:34.906848,15.27576762,.00011773,43.0016,160.9675,276.4995,83.5723,0,U,56096,999,18154,.388053E-6,-.251E-5,0
STARLINK-6077,2023-046E,2026-07-14T04:48:12.690432,15.27574630,.00014686,43.0026,119.8179,268.3924,91.6759,0,U,56097,999,18192,.14160936E-4,.127E-5,0
STARLINK-6088,2023-046F,2026-07-15T06:06:28.852704,15.27576589,.00011981,43.0024,160.9121,266.1359,93.9356,0,U,56098,999,18153,.11008914E-4,.41E-6,0
STARLINK-6076,2023-046H,2026-07-15T09:01:50.286144,15.27573051,.00011833,43.0010,160.1078,241.7987,118.2745,0,U,56100,999,18156,.39133784E-4,.815E-5,0
STARLINK-6095,2023-046J,2026-07-15T07:33:14.094144,15.27576422,.0001206,43.0025,160.4957,268.4784,91.5929,0,U,56101,999,18155,.12644054E-4,.86E-6,0
STARLINK-6075,2023-046K,2026-07-15T06:21:18.211104,15.27575159,.00004695,43.0010,160.9752,197.7091,162.3744,0,U,56102,999,18154,.32536411E-4,.634E-5,0
STARLINK-6096,2023-046L,2026-07-15T07:44:20.042016,15.27576798,.00008485,43.0019,160.5555,257.7530,102.3226,0,U,56103,999,18155,.13563049E-4,.111E-5,0
STARLINK-6062,2023-046M,2026-07-15T06:04:37.589376,15.27626161,.00017307,42.9989,160.8972,269.4484,90.6170,0,U,56104,999,18154,-.5152467E-3,-.14434E-3,0
STARLINK-6066,2023-046N,2026-07-15T05:22:16.783968,15.27604909,.00020338,43.0001,161.5224,273.0309,87.0310,0,U,56105,999,18153,.41638994E-3,.11222E-3,0
STARLINK-6030,2023-046Q,2026-07-15T07:07:32.936736,15.27568453,.00017075,43.0039,161.2111,272.5686,87.4970,0,U,56107,999,18154,-.32862018E-4,-.1166E-4,0
STARLINK-6081,2023-046R,2026-07-15T07:59:08.228832,15.27580012,.00008831,43.0022,160.6177,266.6234,93.4517,0,U,56108,999,18155,-.22477833E-4,-.88E-5,0
